iso;country;language;id;region1;region2;region3;region4;locality;postcode;suburb;latitude;longitude;elevation;iso2;fips;nuts;hasc;stat;timezone;utc;dst
BD;Bangladesh;EN;1000106641;Barisal;Barguna;Amtali;;Gazipur Bandar;8641;;22.183050;90.317947;6;BD-02;BG25;;BD.BA.BG;10409;Asia/Dhaka;+06:00;+06:00
BD;Bangladesh;EN;1000106642;Barisal;Barguna;Amtali;;Khepupara;8650;;22.013050;90.182549;6;BD-02;BG25;;BD.BA.BG;10409;Asia/Dhaka;+06:00;+06:00
BD;Bangladesh;EN;1000106533;Barisal;Barguna;Bamna;;Bamna;8730;;22.335461;90.081451;9;BD-02;BG25;;BD.BA.BG;10419;Asia/Dhaka;+06:00;+06:00
BD;Bangladesh;EN;1000106532;Barisal;Barguna;Barguan;;Amtali;8710;;22.062500;90.066353;4;BD-02;BG25;;BD.BA.BG;10428;Asia/Dhaka;+06:00;+06:00
BD;Bangladesh;EN;1000106534;Barisal;Barguna;Barguan;;Barguna Sadar;8700;;22.160931;90.147202;10;BD-02;BG25;;BD.BA.BG;10428;Asia/Dhaka;+06:00;+06:00
BD;Bangladesh;EN;1000106535;Barisal;Barguna;Barguan;;Nali Bandar;8701;;22.197260;90.077522;7;BD-02;BG25;;BD.BA.BG;10428;Asia/Dhaka;+06:00;+06:00
BD;Bangladesh;EN;1000106605;Barisal;Barguna;Betagi;;Shoulajalia;8433;;22.440729;90.223022;5;BD-02;BG25;;BD.BA.BG;10447;Asia/Dhaka;+06:00;+06:00
BD;Bangladesh;EN;1000106539;Barisal;Barguna;Patharghata;;Patharghata;8720;;22.082670;89.982323;7;BD-02;BG25;;BD.BA.BG;10485;Asia/Dhaka;+06:00;+06:00
BD;Bangladesh;EN;1000106540;Barisal;Barisal;Agailjhara;;Agailzhara;8240;;22.927059;90.192543;11;BD-06;BG01;;BD.BA.BS;10602;Asia/Dhaka;+06:00;+06:00
BD;Bangladesh;EN;1000106541;Barisal;Barisal;Agailjhara;;Gaila;8241;;22.946989;90.169518;5;BD-06;BG01;;BD.BA.BS;10602;Asia/Dhaka;+06:00;+06:00
BD;Bangladesh;EN;1000106542;Barisal;Barisal;Agailjhara;;Paisarhat;8242;;22.982660;90.188980;10;BD-06;BG01;;BD.BA.BS;10602;Asia/Dhaka;+06:00;+06:00
BD;Bangladesh;EN;1000107101;Barisal;Barisal;Agailjhara;;Ramdia College;8131;;22.986130;90.106148;4;BD-06;BG01;;BD.BA.BS;10602;Asia/Dhaka;+06:00;+06:00
BD;Bangladesh;EN;1000106543;Barisal;Barisal;Babuganj;;Babuganj;8210;;22.802000;90.304008;8;BD-06;BG01;;BD.BA.BS;10603;Asia/Dhaka;+06:00;+06:00
BD;Bangladesh;EN;1000106544;Barisal;Barisal;Babuganj;;Babuganj Bondor;8217;;22.802000;90.304008;8;BD-06;BG01;;BD.BA.BS;10603;Asia/Dhaka;+06:00;+06:00
BD;Bangladesh;EN;1000106545;Barisal;Barisal;Babuganj;;Barishal Cadet;8216;;22.816667;90.333333;9;BD-06;BG01;;BD.BA.BS;10603;Asia/Dhaka;+06:00;+06:00
BD;Bangladesh;EN;1000106546;Barisal;Barisal;Babuganj;;Chandpasha;8212;;22.807859;90.336060;7;BD-06;BG01;;BD.BA.BS;10603;Asia/Dhaka;+06:00;+06:00
BD;Bangladesh;EN;1000106549;Barisal;Barisal;Babuganj;;Rahamatpur;8211;;22.783300;90.300003;10;BD-06;BG01;;BD.BA.BS;10603;Asia/Dhaka;+06:00;+06:00
BD;Bangladesh;EN;1000106573;Barisal;Barisal;Bakerganj;;Charamandi;8281;;22.633301;90.433296;5;BD-06;BG01;;BD.BA.BS;10607;Asia/Dhaka;+06:00;+06:00
BD;Bangladesh;EN;1000106620;Barisal;Barisal;Bakerganj;;Halta;8562;;22.600000;90.400002;6;BD-06;BG01;;BD.BA.BS;10607;Asia/Dhaka;+06:00;+06:00
BD;Bangladesh;EN;1000106574;Barisal;Barisal;Bakerganj;;kalaskati;8284;;22.499830;90.357498;5;BD-06;BG01;;BD.BA.BS;10607;Asia/Dhaka;+06:00;+06:00
BD;Bangladesh;EN;1000106638;Barisal;Barisal;Bakerganj;;Kalishari;8623;;22.545000;90.525284;5;BD-06;BG01;;BD.BA.BS;10607;Asia/Dhaka;+06:00;+06:00
BD;Bangladesh;EN;1000106603;Barisal;Barisal;Bakerganj;;Kathalia;8430;;22.549999;90.316704;7;BD-06;BG01;;BD.BA.BS;10607;Asia/Dhaka;+06:00;+06:00
BD;Bangladesh;EN;1000106645;Barisal;Barisal;Bakerganj;;Moukaran;8601;;22.483299;90.416702;0;BD-06;BG01;;BD.BA.BS;10607;Asia/Dhaka;+06:00;+06:00
BD;Bangladesh;EN;1000106604;Barisal;Barisal;Bakerganj;;Niamatee;8432;;22.490311;90.216438;6;BD-06;BG01;;BD.BA.BS;10607;Asia/Dhaka;+06:00;+06:00
BD;Bangladesh;EN;1000106575;Barisal;Barisal;Bakerganj;;Padri Shibpur;8282;;22.482410;90.283821;4;BD-06;BG01;;BD.BA.BS;10607;Asia/Dhaka;+06:00;+06:00
BD;Bangladesh;EN;1000106576;Barisal;Barisal;Bakerganj;;Sahebganj;8280;;22.549999;90.349998;6;BD-06;BG01;;BD.BA.BS;10607;Asia/Dhaka;+06:00;+06:00
BD;Bangladesh;EN;1000106577;Barisal;Barisal;Bakerganj;;Shialguni;8283;;22.549999;90.449997;8;BD-06;BG01;;BD.BA.BS;10607;Asia/Dhaka;+06:00;+06:00
BD;Bangladesh;EN;1000106609;Barisal;Barisal;Banaripara;;Banaripara;8530;;22.774910;90.158630;11;BD-06;BG01;;BD.BA.BS;10610;Asia/Dhaka;+06:00;+06:00
BD;Bangladesh;EN;1000106598;Barisal;Barisal;Banaripara;;Gabha;8403;;22.766701;90.166702;9;BD-06;BG01;;BD.BA.BS;10610;Asia/Dhaka;+06:00;+06:00
BD;Bangladesh;EN;1000106553;Barisal;Barisal;Barisal;;Barishal Sadar;8200;;22.712099;90.399208;6;BD-06;BG01;;BD.BA.BS;10651;Asia/Dhaka;+06:00;+06:00
BD;Bangladesh;EN;1000106618;Barisal;Barisal;Barisal;;Betmor Natun Hat;8565;;22.675240;90.372208;7;BD-06;BG01;;BD.BA.BS;10651;Asia/Dhaka;+06:00;+06:00
BD;Bangladesh;EN;1000106554;Barisal;Barisal;Barisal;;Bukhainagar;8201;;22.742590;90.349541;8;BD-06;BG01;;BD.BA.BS;10651;Asia/Dhaka;+06:00;+06:00
BD;Bangladesh;EN;1000106619;Barisal;Barisal;Barisal;;Gulishakhali;8563;;22.643761;90.377991;5;BD-06;BG01;;BD.BA.BS;10651;Asia/Dhaka;+06:00;+06:00
BD;Bangladesh;EN;1000106557;Barisal;Barisal;Barisal;;Patang;8204;;22.684210;90.446899;6;BD-06;BG01;;BD.BA.BS;10651;Asia/Dhaka;+06:00;+06:00
BD;Bangladesh;EN;1000106558;Barisal;Barisal;Barisal;;Rupatali;8207;;22.676101;90.348950;5;BD-06;BG01;;BD.BA.BS;10651;Asia/Dhaka;+06:00;+06:00
BD;Bangladesh;EN;1000106559;Barisal;Barisal;Barisal;;Saheberhat;8202;;22.739321;90.308182;4;BD-06;BG01;;BD.BA.BS;10651;Asia/Dhaka;+06:00;+06:00
BD;Bangladesh;EN;1000106622;Barisal;Barisal;Barisal;;Shilarganj;8566;;22.659500;90.354393;0;BD-06;BG01;;BD.BA.BS;10651;Asia/Dhaka;+06:00;+06:00
BD;Bangladesh;EN;1000106623;Barisal;Barisal;Barisal;;Tiarkhali;8564;;22.683300;90.333298;5;BD-06;BG01;;BD.BA.BS;10651;Asia/Dhaka;+06:00;+06:00
BD;Bangladesh;EN;1000107150;Barisal;Barisal;Gaurnadi;;Bahadurpur;7932;;23.021860;90.226959;7;BD-06;BG01;;BD.BA.BS;10632;Asia/Dhaka;+06:00;+06:00
BD;Bangladesh;EN;1000106561;Barisal;Barisal;Gaurnadi;;Batajor;8233;;22.894480;90.293503;11;BD-06;BG01;;BD.BA.BS;10632;Asia/Dhaka;+06:00;+06:00
BD;Bangladesh;EN;1000106562;Barisal;Barisal;Gaurnadi;;Gouranadi;8230;;22.970301;90.230812;10;BD-06;BG01;;BD.BA.BS;10632;Asia/Dhaka;+06:00;+06:00
BD;Bangladesh;EN;1000106563;Barisal;Barisal;Gaurnadi;;Kashemabad;8232;;22.925850;90.302299;12;BD-06;BG01;;BD.BA.BS;10632;Asia/Dhaka;+06:00;+06:00
BD;Bangladesh;EN;1000106564;Barisal;Barisal;Gaurnadi;;Tarki Bandar;8231;;22.941919;90.227959;7;BD-06;BG01;;BD.BA.BS;10632;Asia/Dhaka;+06:00;+06:00
BD;Bangladesh;EN;1000106551;Barisal;Barisal;Hizla;;Barajalia;8260;;22.937300;90.494110;5;BD-06;BG01;;BD.BA.BS;10636;Asia/Dhaka;+06:00;+06:00
BD;Bangladesh;EN;1000106565;Barisal;Barisal;Hizla;;Langutia;8274;;22.906330;90.591301;0;BD-06;BG01;;BD.BA.BS;10636;Asia/Dhaka;+06:00;+06:00
BD;Bangladesh;EN;1000106555;Barisal;Barisal;Mehendiganj;;Jaguarhat;8206;;22.856100;90.426048;7;BD-06;BG01;;BD.BA.BS;10662;Asia/Dhaka;+06:00;+06:00
BD;Bangladesh;EN;1000106556;Barisal;Barisal;Mehendiganj;;Kashipur;8205;;22.843000;90.562508;5;BD-06;BG01;;BD.BA.BS;10662;Asia/Dhaka;+06:00;+06:00
BD;Bangladesh;EN;1000106571;Barisal;Barisal;Mehendiganj;;Kazirchar;8251;;22.738251;90.519203;0;BD-06;BG01;;BD.BA.BS;10662;Asia/Dhaka;+06:00;+06:00
BD;Bangladesh;EN;1000106566;Barisal;Barisal;Mehendiganj;;Laskarpur;8271;;22.871300;90.542480;2;BD-06;BG01;;BD.BA.BS;10662;Asia/Dhaka;+06:00;+06:00
BD;Bangladesh;EN;1000106567;Barisal;Barisal;Mehendiganj;;Mahendiganj;8270;;22.815901;90.533699;10;BD-06;BG01;;BD.BA.BS;10662;Asia/Dhaka;+06:00;+06:00
BD;Bangladesh;EN;1000106568;Barisal;Barisal;Mehendiganj;;Nalgora;8273;;22.873739;90.633301;0;BD-06;BG01;;BD.BA.BS;10662;Asia/Dhaka;+06:00;+06:00
BD;Bangladesh;EN;1000106552;Barisal;Barisal;Mehendiganj;;Osman Manjil;8261;;22.901730;90.464699;9;BD-06;BG01;;BD.BA.BS;10662;Asia/Dhaka;+06:00;+06:00
BD;Bangladesh;EN;1000106569;Barisal;Barisal;Mehendiganj;;Ulania;8272;;22.842991;90.603951;12;BD-06;BG01;;BD.BA.BS;10662;Asia/Dhaka;+06:00;+06:00
BD;Bangladesh;EN;1000106570;Barisal;Barisal;Muladi;;Charkalekhan;8252;;22.965429;90.405800;9;BD-06;BG01;;BD.BA.BS;10669;Asia/Dhaka;+06:00;+06:00
BD;Bangladesh;EN;1000106572;Barisal;Barisal;Muladi;;Muladi;8250;;22.881800;90.383072;11;BD-06;BG01;;BD.BA.BS;10669;Asia/Dhaka;+06:00;+06:00
BD;Bangladesh;EN;1000106578;Barisal;Barisal;Wazirpur;;Dakuarhat;8223;;22.823320;90.225281;5;BD-06;BG01;;BD.BA.BS;10694;Asia/Dhaka;+06:00;+06:00
BD;Bangladesh;EN;1000106579;Barisal;Barisal;Wazirpur;;Dhamura;8221;;22.883301;90.199997;7;BD-06;BG01;;BD.BA.BS;10694;Asia/Dhaka;+06:00;+06:00
BD;Bangladesh;EN;1000106580;Barisal;Barisal;Wazirpur;;Jugirkanda;8222;;22.850000;90.166702;9;BD-06;BG01;;BD.BA.BS;10694;Asia/Dhaka;+06:00;+06:00
BD;Bangladesh;EN;1000106581;Barisal;Barisal;Wazirpur;;Shikarpur;8224;;22.833300;90.266701;10;BD-06;BG01;;BD.BA.BS;10694;Asia/Dhaka;+06:00;+06:00
BD;Bangladesh;EN;1000106582;Barisal;Barisal;Wazirpur;;Uzirpur;8220;;22.878300;90.241081;11;BD-06;BG01;;BD.BA.BS;10694;Asia/Dhaka;+06:00;+06:00
BD;Bangladesh;EN;1000106583;Barisal;Bhola;Bhola;;Bhola Sadar;8300;;22.706350;90.632401;9;BD-07;BG23;;BD.BA.BL;10918;Asia/Dhaka;+06:00;+06:00
BD;Bangladesh;EN;1000106587;Barisal;Bhola;Bhola;;Charfashion;8340;;22.579189;90.777908;0;BD-07;BG23;;BD.BA.BL;10918;Asia/Dhaka;+06:00;+06:00
BD;Bangladesh;EN;1000106588;Barisal;Bhola;Bhola;;Dularhat;8341;;22.539330;90.834862;-19;BD-07;BG23;;BD.BA.BL;10918;Asia/Dhaka;+06:00;+06:00
BD;Bangladesh;EN;1000106595;Barisal;Bhola;Bhola;;Gazaria;8332;;22.605030;90.632339;6;BD-07;BG23;;BD.BA.BL;10918;Asia/Dhaka;+06:00;+06:00
BD;Bangladesh;EN;1000106593;Barisal;Bhola;Bhola;;Hatshoshiganj;8350;;22.470301;90.864258;0;BD-07;BG23;;BD.BA.BL;10918;Asia/Dhaka;+06:00;+06:00
BD;Bangladesh;EN;1000106589;Barisal;Bhola;Bhola;;Keramatganj;8342;;22.540899;90.783607;0;BD-07;BG23;;BD.BA.BL;10918;Asia/Dhaka;+06:00;+06:00
BD;Bangladesh;EN;1000106585;Barisal;Bhola;Burhanuddin;;Borhanuddin;8320;;22.498301;90.715309;10;BD-07;BG23;;BD.BA.BL;10921;Asia/Dhaka;+06:00;+06:00
BD;Bangladesh;EN;1000106594;Barisal;Bhola;Burhanuddin;;Daurihat;8331;;22.485649;90.668633;2;BD-07;BG23;;BD.BA.BL;10921;Asia/Dhaka;+06:00;+06:00
BD;Bangladesh;EN;1000106586;Barisal;Bhola;Burhanuddin;;Mirzakalu;8321;;22.483299;90.800003;6;BD-07;BG23;;BD.BA.BL;10921;Asia/Dhaka;+06:00;+06:00
BD;Bangladesh;EN;1000106596;Barisal;Bhola;Char Fasson;;Lalmohan;8330;;22.233509;90.725800;5;BD-07;BG23;;BD.BA.BL;10925;Asia/Dhaka;+06:00;+06:00
BD;Bangladesh;EN;1000106590;Barisal;Bhola;Daulatkhan;;Doulatkhan;8310;;22.618820;90.762550;0;BD-07;BG23;;BD.BA.BL;10929;Asia/Dhaka;+06:00;+06:00
BD;Bangladesh;EN;1000106591;Barisal;Bhola;Daulatkhan;;Hajipur;8311;;22.698931;90.735336;-31;BD-07;BG23;;BD.BA.BL;10929;Asia/Dhaka;+06:00;+06:00
BD;Bangladesh;EN;1000106584;Barisal;Bhola;Daulatkhan;;Joynagar;8301;;22.600000;90.699997;6;BD-07;BG23;;BD.BA.BL;10929;Asia/Dhaka;+06:00;+06:00
BD;Bangladesh;EN;1000106592;Barisal;Bhola;Lalmohan;;Hajirhat;8360;;22.335070;90.823647;6;BD-07;BG23;;BD.BA.BL;10954;Asia/Dhaka;+06:00;+06:00
BD;Bangladesh;EN;1000106597;Barisal;Jhalokhati;Jhalokati;;Baukathi;8402;;22.700001;90.199997;10;BD-25;BG43;;BD.BA.JK;14240;Asia/Dhaka;+06:00;+06:00
BD;Bangladesh;EN;1000106630;Barisal;Jhalokhati;Jhalokati;;Darus Sunnat;8521;;22.641460;90.124527;5;BD-25;BG43;;BD.BA.JK;14240;Asia/Dhaka;+06:00;+06:00
BD;Bangladesh;EN;1000106599;Barisal;Jhalokhati;Jhalokati;;Jhalokathi Sadar;8400;;22.646099;90.206367;10;BD-25;BG43;;BD.BA.JK;14240;Asia/Dhaka;+06:00;+06:00
BD;Bangladesh;EN;1000106600;Barisal;Jhalokhati;Jhalokati;;Nabagram;8401;;22.716700;90.233299;6;BD-25;BG43;;BD.BA.JK;14240;Asia/Dhaka;+06:00;+06:00
BD;Bangladesh;EN;1000106560;Barisal;Jhalokhati;Jhalokati;;Sugandia;8203;;22.716700;90.266701;7;BD-25;BG43;;BD.BA.JK;14240;Asia/Dhaka;+06:00;+06:00
BD;Bangladesh;EN;1000106633;Barisal;Jhalokhati;Jhalokati;;Swarupkathi;8520;;22.620060;90.109238;6;BD-25;BG43;;BD.BA.JK;14240;Asia/Dhaka;+06:00;+06:00
BD;Bangladesh;EN;1000106536;Barisal;Jhalokhati;Kanthalia;;Betagi;8740;;22.419519;90.035210;8;BD-25;BG43;;BD.BA.JK;14243;Asia/Dhaka;+06:00;+06:00
BD;Bangladesh;EN;1000106612;Barisal;Jhalokhati;Kanthalia;;Dhaoa;8552;;22.437799;90.068993;10;BD-25;BG43;;BD.BA.JK;14243;Asia/Dhaka;+06:00;+06:00
BD;Bangladesh;EN;1000106613;Barisal;Jhalokhati;Kanthalia;;Kanudashkathi;8551;;22.481609;90.141403;4;BD-25;BG43;;BD.BA.JK;14243;Asia/Dhaka;+06:00;+06:00
BD;Bangladesh;EN;1000106602;Barisal;Jhalokhati;Nalchity;;Amua;8431;;22.536671;90.243767;6;BD-25;BG43;;BD.BA.JK;14273;Asia/Dhaka;+06:00;+06:00
BD;Bangladesh;EN;1000106606;Barisal;Jhalokhati;Nalchity;;Beerkathi;8421;;22.601299;90.235489;9;BD-25;BG43;;BD.BA.JK;14273;Asia/Dhaka;+06:00;+06:00
BD;Bangladesh;EN;1000106610;Barisal;Jhalokhati;Nalchity;;Chakhar;8531;;22.663900;90.264740;5;BD-25;BG43;;BD.BA.JK;14273;Asia/Dhaka;+06:00;+06:00
BD;Bangladesh;EN;1000106547;Barisal;Jhalokhati;Nalchity;;Madhabpasha;8213;;22.616699;90.300003;6;BD-25;BG43;;BD.BA.JK;14273;Asia/Dhaka;+06:00;+06:00
BD;Bangladesh;EN;1000106607;Barisal;Jhalokhati;Nalchity;;Nalchhiti;8420;;22.635349;90.294884;7;BD-25;BG43;;BD.BA.JK;14273;Asia/Dhaka;+06:00;+06:00
BD;Bangladesh;EN;1000106548;Barisal;Jhalokhati;Nalchity;;Nizamuddin College;8215;;22.645670;90.338928;2;BD-25;BG43;;BD.BA.JK;14273;Asia/Dhaka;+06:00;+06:00
BD;Bangladesh;EN;1000106608;Barisal;Jhalokhati;Nalchity;;Rajapur;8410;;22.591221;90.307671;5;BD-25;BG43;;BD.BA.JK;14273;Asia/Dhaka;+06:00;+06:00
BD;Bangladesh;EN;1000106601;Barisal;Jhalokhati;Nalchity;;Shekherhat;8404;;22.616699;90.333298;7;BD-25;BG43;;BD.BA.JK;14273;Asia/Dhaka;+06:00;+06:00
BD;Bangladesh;EN;1000106550;Barisal;Jhalokhati;Nalchity;;Thakur Mallik;8214;;22.653191;90.307327;7;BD-25;BG43;;BD.BA.JK;14273;Asia/Dhaka;+06:00;+06:00
BD;Bangladesh;EN;1000106614;Barisal;Jhalokhati;Rajapur;;Jolagati;8513;;22.578449;90.061493;9;BD-25;BG43;;BD.BA.JK;14284;Asia/Dhaka;+06:00;+06:00
BD;Bangladesh;EN;1000106621;Barisal;Jhalokhati;Rajapur;;Mathbaria;8560;;22.569910;90.161240;6;BD-25;BG43;;BD.BA.JK;14284;Asia/Dhaka;+06:00;+06:00
BD;Bangladesh;EN;1000106634;Barisal;Patuakhali;Bauphal;;Bagabandar;8621;;22.360121;90.442772;6;BD-51;BG15;;BD.BA.PT;17838;Asia/Dhaka;+06:00;+06:00
BD;Bangladesh;EN;1000106635;Barisal;Patuakhali;Bauphal;;Bauphal;8620;;22.413370;90.547897;7;BD-51;BG15;;BD.BA.PT;17838;Asia/Dhaka;+06:00;+06:00
BD;Bangladesh;EN;1000106636;Barisal;Patuakhali;Bauphal;;Birpasha;8622;;22.466700;90.483299;7;BD-51;BG15;;BD.BA.PT;17838;Asia/Dhaka;+06:00;+06:00
BD;Bangladesh;EN;1000106637;Barisal;Patuakhali;Bauphal;;Kalaia;8624;;22.381550;90.557762;5;BD-51;BG15;;BD.BA.PT;17838;Asia/Dhaka;+06:00;+06:00
BD;Bangladesh;EN;1000106639;Barisal;Patuakhali;Dashmina;;Dashmina;8630;;22.258720;90.528969;5;BD-51;BG15;;BD.BA.PT;17852;Asia/Dhaka;+06:00;+06:00
BD;Bangladesh;EN;1000106644;Barisal;Patuakhali;Dumki;;Dumkee;8602;;22.455641;90.374237;3;BD-51;BG15;;BD.BA.PT;17855;Asia/Dhaka;+06:00;+06:00
